{
  "type": "FeatureCollection",
  "features": [
    {
      "type": "Feature",
      "properties": {
        "norad_id": 41948,
        "name": "CARTOSAT-2D",
        "group": "resource",
        "lat": 45.38820124953841,
        "lon": 49.632577625749335,
        "alt_km": 503.0647454583459,
        "timestamp": "2025-12-25T22:42:16.653889+00:00",
        "meta_object_name": "CARTOSAT-2D",
        "meta_object_id": "2017-008A",
        "meta_epoch": "2025-12-25T17:45:39.434400",
        "meta_mean_motion": 15.19193686,
        "meta_eccentricity": 0.0005413,
        "meta_inclination": 97.4366,
        "meta_ra_of_asc_node": 57.0381,
        "meta_arg_of_pericenter": 115.4859,
        "meta_mean_anomaly": 244.6936,
        "meta_ephemeris_type": 0,
        "meta_classification_type": "U",
        "meta_norad_cat_id": 41948,
        "meta_element_set_no": 999,
        "meta_rev_at_epoch": 49124,
        "meta_bstar": 0.00025403,
        "meta_mean_motion_dot": 5.279e-05,
        "meta_mean_motion_ddot": 0,
        "tle_line1": "1 41948U 17008A   25359.74003975  .00005279  00000+0  25403-3 0  9990",
        "tle_line2": "2 41948  97.4366  57.0381 0005413 115.4859 244.6936 15.19193686491246"
      },
      "geometry": {
        "type": "Point",
        "coordinates": [
          49.632577625749335,
          45.38820124953841
        ]
      }
    },
    {
      "type": "Feature",
      "properties": {
        "norad_id": 42063,
        "name": "SENTINEL-2B",
        "group": "resource",
        "lat": 49.11374801287085,
        "lon": -97.76430618606545,
        "alt_km": 783.8846478846453,
        "timestamp": "2025-12-25T22:42:16.653899+00:00",
        "meta_object_name": "SENTINEL-2B",
        "meta_object_id": "2017-013A",
        "meta_epoch": "2025-12-25T18:44:32.224128",
        "meta_mean_motion": 14.30815787,
        "meta_eccentricity": 0.0001192,
        "meta_inclination": 98.5697,
        "meta_ra_of_asc_node": 72.043,
        "meta_arg_of_pericenter": 89.5782,
        "meta_mean_anomaly": 270.5538,
        "meta_ephemeris_type": 0,
        "meta_classification_type": "U",
        "meta_norad_cat_id": 42063,
        "meta_element_set_no": 999,
        "meta_rev_at_epoch": 45984,
        "meta_bstar": 6.3995e-05,
        "meta_mean_motion_dot": 1.24e-06,
        "meta_mean_motion_ddot": 0,
        "tle_line1": "1 42063U 17013A   25359.78092852  .00000124  00000+0  63995-4 0  9994",
        "tle_line2": "2 42063  98.5697  72.0430 0001192  89.5782 270.5538 14.30815787459843"
      },
      "geometry": {
        "type": "Point",
        "coordinates": [
          -97.76430618606545,
          49.11374801287085
        ]
      }
    },
    {
      "type": "Feature",
      "properties": {
        "norad_id": 42767,
        "name": "CARTOSAT-2E",
        "group": "resource",
        "lat": -44.30025010926362,
        "lon": 64.69836377621718,
        "alt_km": 516.4076901581902,
        "timestamp": "2025-12-25T22:42:16.653909+00:00",
        "meta_object_name": "CARTOSAT-2E",
        "meta_object_id": "2017-036C",
        "meta_epoch": "2025-12-25T18:09:32.826816",
        "meta_mean_motion": 15.19200463,
        "meta_eccentricity": 0.0002492,
        "meta_inclination": 97.4533,
        "meta_ra_of_asc_node": 57.1716,
        "meta_arg_of_pericenter": 171.3486,
        "meta_mean_anomaly": 188.7792,
        "meta_ephemeris_type": 0,
        "meta_classification_type": "U",
        "meta_norad_cat_id": 42767,
        "meta_element_set_no": 999,
        "meta_rev_at_epoch": 47181,
        "meta_bstar": 0.00021194,
        "meta_mean_motion_dot": 4.393e-05,
        "meta_mean_motion_ddot": 0,
        "tle_line1": "1 42767U 17036C   25359.75662994  .00004393  00000+0  21194-3 0  9993",
        "tle_line2": "2 42767  97.4533  57.1716 0002492 171.3486 188.7792 15.19200463471817"
      },
      "geometry": {
        "type": "Point",
        "coordinates": [
          64.69836377621718,
          -44.30025010926362
        ]
      }
    },
    {
      "type": "Feature",
      "properties": {
        "norad_id": 42920,
        "name": "FORMOSAT-5",
        "group": "resource",
        "lat": 2.076869209636211,
        "lon": 73.69742951328786,
        "alt_km": 727.7404824919831,
        "timestamp": "2025-12-25T22:42:16.653919+00:00",
        "meta_object_name": "FORMOSAT-5",
        "meta_object_id": "2017-049A",
        "meta_epoch": "2025-12-25T17:43:45.001056",
        "meta_mean_motion": 14.50767916,
        "meta_eccentricity": 0.0009846,
        "meta_inclination": 98.2438,
        "meta_ra_of_asc_node": 73.7956,
        "meta_arg_of_pericenter": 257.0054,
        "meta_mean_anomaly": 103.0042,
        "meta_ephemeris_type": 0,
        "meta_classification_type": "U",
        "meta_norad_cat_id": 42920,
        "meta_element_set_no": 999,
        "meta_rev_at_epoch": 44152,
        "meta_bstar": 7.2929e-05,
        "meta_mean_motion_dot": 2.43e-06,
        "meta_mean_motion_ddot": 0,
        "tle_line1": "1 42920U 17049A   25359.73871529  .00000243  00000+0  72929-4 0  9995",
        "tle_line2": "2 42920  98.2438  73.7956 0009846 257.0054 103.0042 14.50767916441522"
      },
      "geometry": {
        "type": "Point",
        "coordinates": [
          73.69742951328786,
          2.076869209636211
        ]
      }
    },
    {
      "type": "Feature",
      "properties": {
        "norad_id": 42969,
        "name": "SENTINEL-5P",
        "group": "resource",
        "lat": -8.51096983477976,
        "lon": -60.26071118249976,
        "alt_km": 831.0443248647425,
        "timestamp": "2025-12-25T22:42:16.653930+00:00",
        "meta_object_name": "SENTINEL-5P",
        "meta_object_id": "2017-064A",
        "meta_epoch": "2025-12-25T17:40:12.395712",
        "meta_mean_motion": 14.19520693,
        "meta_eccentricity": 0.0001064,
        "meta_inclination": 98.7802,
        "meta_ra_of_asc_node": 298.2061,
        "meta_arg_of_pericenter": 90.9871,
        "meta_mean_anomaly": 269.1427,
        "meta_ephemeris_type": 0,
        "meta_classification_type": "U",
        "meta_norad_cat_id": 42969,
        "meta_element_set_no": 999,
        "meta_rev_at_epoch": 42495,
        "meta_bstar": 6.8609e-05,
        "meta_mean_motion_dot": 1e-06,
        "meta_mean_motion_ddot": 0,
        "tle_line1": "1 42969U 17064A   25359.73625458  .00000100  00000+0  68609-4 0  9995",
        "tle_line2": "2 42969  98.7802 298.2061 0001064  90.9871 269.1427 14.19520693424954"
      },
      "geometry": {
        "type": "Point",
        "coordinates": [
          -60.26071118249976,
          -8.51096983477976
        ]
      }
    },
    {
      "type": "Feature",
      "properties": {
        "norad_id": 42987,
        "name": "SKYSAT-C11",
        "group": "resource",
        "lat": 68.72676854804206,
        "lon": 118.22632506292857,
        "alt_km": 415.1754564373341,
        "timestamp": "2025-12-25T22:42:16.653941+00:00",
        "meta_object_name": "SKYSAT-C11",
        "meta_object_id": "2017-068A",
        "meta_epoch": "2025-12-24T21:34:50.650176",
        "meta_mean_motion": 15.4796518,
        "meta_eccentricity": 0.0001116,
        "meta_inclination": 97.4153,
        "meta_ra_of_asc_node": 136.6958,
        "meta_arg_of_pericenter": 96.4287,
        "meta_mean_anomaly": 263.709,
        "meta_ephemeris_type": 0,
        "meta_classification_type": "U",
        "meta_norad_cat_id": 42987,
        "meta_element_set_no": 999,
        "meta_rev_at_epoch": 45619,
        "meta_bstar": 0.00045752,
        "meta_mean_motion_dot": 0.00023827,
        "meta_mean_motion_ddot": 0,
        "tle_line1": "1 42987U 17068A   25358.89919734  .00023827  00000+0  45752-3 0  9992",
        "tle_line2": "2 42987  97.4153 136.6958 0001116  96.4287 263.7090 15.47965180456192"
      },
      "geometry": {
        "type": "Point",
        "coordinates": [
          118.22632506292857,
          68.72676854804206
        ]
      }
    },
    {
      "type": "Feature",
      "properties": {
        "norad_id": 42988,
        "name": "SKYSAT-C10",
        "group": "resource",
        "lat": 47.46271463219528,
        "lon": -40.99110475121444,
        "alt_km": 463.9605343107187,
        "timestamp": "2025-12-25T22:42:16.653952+00:00",
        "meta_object_name": "SKYSAT-C10",
        "meta_object_id": "2017-068B",
        "meta_epoch": "2025-12-24T19:29:00.783168",
        "meta_mean_motion": 15.32071049,
        "meta_eccentricity": 0.00043105,
        "meta_inclination": 97.4272,
        "meta_ra_of_asc_node": 129.6977,
        "meta_arg_of_pericenter": 75.127,
        "meta_mean_anomaly": 285.0448,
        "meta_ephemeris_type": 0,
        "meta_classification_type": "U",
        "meta_norad_cat_id": 42988,
        "meta_element_set_no": 999,
        "meta_rev_at_epoch": 45564,
        "meta_bstar": 0.00040464637,
        "meta_mean_motion_dot": 0.00012461,
        "meta_mean_motion_ddot": 0,
        "tle_line1": "1 42988U 17068B   25358.81181462  .00012461  00000+0  40465-3 0  9992",
        "tle_line2": "2 42988  97.4272 129.6977 0004310  75.1270 285.0448 15.32071049455642"
      },
      "geometry": {
        "type": "Point",
        "coordinates": [
          -40.99110475121444,
          47.46271463219528
        ]
      }
    }
  ]
}